NORAD_CAT_ID,OBJECT_NAME,OBJECT_TYPE,EPOCH,MEAN_MOTION,ECCENTRICITY,INCLINATION,RA_OF_ASC_NODE,ARG_OF_PERICENTER,MEAN_ANOMALY,BSTAR,MEAN_MOTION_DOT,MEAN_MOTION_DDOT,TLE_LINE0,TLE_LINE1,TLE_LINE2,SEMIMAJOR_AXIS,PERIOD,APOGEE,PERIGEE,DECAYED
53932.0,STARLINK-4772,PAYLOAD,2022-12-13 02:00:17,15.73254125,0.0003529,53.2124,221.4263,7.3895,352.7176,0.00025157,0.00034922,0.0,0 STARLINK-4772,1 53932U 22119AY  22347.08354018  .00034922  00000-0  25157-3 0  9997,2 53932  53.2124 221.4263 0003529   7.3895 352.7176 15.73254125 12887,6727.741,91.53,351.98,347.232,0.0
53932.0,STARLINK-4772,PAYLOAD,2022-12-13 05:03:14,15.73279816,0.0003939,53.2127,220.7992,13.3661,346.7463,0.00032857,0.00045917,0.0,0 STARLINK-4772,1 53932U 22119AY  22347.21058803  .00045917  00000-0  32857-3 0  9996,2 53932  53.2127 220.7992 0003939  13.3661 346.7463 15.73279816 12903,6727.668000000002,91.529,352.18300000000005,346.8830000000001,0.0
53932.0,STARLINK-4772,PAYLOAD,2022-12-14 08:29:45,15.73356434,0.0004546,53.2125,215.1352,19.2337,340.8854,0.00014073,0.00019313,0.0,0 STARLINK-4772,1 53932U 22119AY  22348.35400293  .00019313  00000-0  14073-3 0  9997,2 53932  53.2125 215.1352 0004546  19.2337 340.8854 15.73356434 13080,6727.449000000001,91.524,352.37300000000016,346.256,0.0
53932.0,STARLINK-4772,PAYLOAD,2022-12-16 03:11:19,15.73234902,0.0003609,53.2115,206.3368,10.4922,349.6173,4.998e-05,6.408e-05,0.0,0 STARLINK-4772,1 53932U 22119AY  22350.13287003  .00006408  00000-0  49980-4 0  9995,2 53932  53.2115 206.3368 0003609  10.4922 349.6173 15.73234902 13367,6727.795999999999,91.531,352.089,347.233,0.0
53932.0,STARLINK-4772,PAYLOAD,2022-12-16 07:45:46,15.73237094,0.0003628,53.2117,205.3928,10.4672,349.6423,4.9697e-05,6.369e-05,0.0,0 STARLINK-4772,1 53932U 22119AY  22350.32345033  .00006369  00000-0  49697-4 0  9995,2 53932  53.2117 205.3928 0003628  10.4672 349.6423 15.73237094 13827,6727.7890000000025,91.531,352.095,347.214,0.0
53932.0,STARLINK-4772,PAYLOAD,2022-12-16 18:26:07,15.7321945,0.000389,53.212,203.1924,2.5571,357.5468,-2.6384e-06,-9.95e-06,0.0,0 STARLINK-4772,1 53932U 22119AY  22350.76814357 -.00000995  00000-0 -26384-5 0  9993,2 53932  53.2120 203.1924 0003890   2.5571 357.5468 15.73219450 13467,6727.84,91.532,352.32199999999995,347.088,0.0
53932.0,STARLINK-4772,PAYLOAD,2022-12-16 19:57:36,15.73207744,0.0003371,53.2131,202.8778,5.7035,354.4023,-5.6091e-05,-8.493e-05,0.0,0 STARLINK-4772,1 53932U 22119AY  22350.83167218 -.00008493  00000-0 -56091-4 0  9996,2 53932  53.2131 202.8778 0003371   5.7035 354.4023 15.73207744 13901,6727.873000000001,91.533,352.006,347.47,0.0
53932.0,STARLINK-4772,PAYLOAD,2022-12-17 00:32:03,15.7318001,0.0003344,53.2127,201.9347,6.7255,353.381,-0.00013659,-0.00019737,0.0,0 STARLINK-4772,1 53932U 22119AY  22351.02226227 -.00019737  00000-0 -13659-3 0  9999,2 53932  53.2127 201.9347 0003344   6.7255 353.3810 15.73180010 13507,6727.9519999999975,91.534,352.06699999999995,347.56699999999995,0.0
53932.0,STARLINK-4772,PAYLOAD,2022-12-17 14:15:25,15.73127055,0.000308,53.2129,199.1056,8.437999999999999,351.6692,-0.00010728,-0.00015607,0.0,0 STARLINK-4772,1 53932U 22119AY  22351.59404676 -.00015607  00000-0 -10728-3 0  9993,2 53932  53.2129 199.1056 0003080   8.4380 351.6692 15.73127055 13597,6728.103,91.537,352.04,347.896,0.0
53932.0,STARLINK-4772,PAYLOAD,2022-12-17 18:49:50,15.73186895,0.0003086,53.2129,198.162,5.7620000000000005,354.3435,3.4788e-05,4.26e-05,0.0,0 STARLINK-4772,1 53932U 22119AY  22351.78460657  .00004260  00000-0  34788-4 0  9999,2 53932  53.2129 198.1620 0003086   5.7620 354.3435 15.73186895 14050,6727.933000000001,91.534,351.874,347.721,0.0
53932.0,STARLINK-4772,PAYLOAD,2022-12-17 20:21:19,15.73160664,0.0003625,53.2128,197.8472,4.5892,355.5161,-7.8101e-05,-0.00011555,0.0,0 STARLINK-4772,1 53932U 22119AY  22351.84813740 -.00011555  00000-0 -78101-4 0  9995,2 53932  53.2128 197.8472 0003625   4.5892 355.5161 15.73160664 13635,6728.007,91.535,352.311,347.43300000000005,0.0
53932.0,STARLINK-4772,PAYLOAD,2022-12-18 07:01:41,15.73181709,0.0003401,53.2133,195.6475,6.0436,354.0625,3.3571e-05,4.088e-05,0.0,0 STARLINK-4772,1 53932U 22119AY  22352.29284665  .00004088  00000-0  33571-4 0  9996,2 53932  53.2133 195.6475 0003401   6.0436 354.0625 15.73181709 13703,6727.946999999999,91.534,352.1,347.524,0.0
53932.0,STARLINK-4772,PAYLOAD,2022-12-18 13:07:37,15.73182249,0.00033,53.2138,194.3877,356.8946,3.2053,4.0286e-05,5.031e-05,0.0,0 STARLINK-4772,1 53932U 22119AY  22352.54695697  .00005031  00000-0  40286-4 0  9995,2 53932  53.2138 194.3877 0003300 356.8946   3.2053 15.73182249 14170,6727.946,91.534,352.031,347.591,0.0
53932.0,STARLINK-4772,PAYLOAD,2022-12-18 19:13:31,15.73225235,0.0003181,53.2135,193.1314,8.4937,351.6136,0.00015039,0.00020562,0.0,0 STARLINK-4772,1 53932U 22119AY  22352.80105939  .00020562  00000-0  15039-3 0  9992,2 53932  53.2135 193.1314 0003181   8.4937 351.6136 15.73225235 14217,6727.823,91.532,351.82800000000015,347.548,0.0
53932.0,STARLINK-4772,PAYLOAD,2022-12-18 23:47:58,15.73211037,0.0003085,53.2129,192.1884,11.6968,348.4123,8.0502e-05,0.00010697,0.0,0 STARLINK-4772,1 53932U 22119AY  22352.99164459  .00010697  00000-0  80502-4 0  9990,2 53932  53.2129 192.1884 0003085  11.6968 348.4123 15.73211037 13814,6727.864000000001,91.533,351.80400000000014,347.653,0.0
53932.0,STARLINK-4772,PAYLOAD,2022-12-19 19:37:11,15.7323326,0.0003815,53.2135,188.1023,5.5644,354.5418,4.488100000000001e-05,5.69e-05,0.0,0 STARLINK-4772,1 53932U 22119AY  22353.81749343  .00005690  00000-0  44881-4 0  9990,2 53932  53.2135 188.1023 0003815   5.5644 354.5418 15.73233260 14374,6727.8,91.531,352.232,347.099,0.0
53932.0,STARLINK-4772,PAYLOAD,2022-12-20 06:17:31,15.73260011,0.0003625,53.2122,185.9014,1.7782,358.325,8.685700000000001e-05,0.00011618,0.0,0 STARLINK-4772,1 53932U 22119AY  22354.26217244  .00011618  00000-0  86857-4 0  9996,2 53932  53.2122 185.9014 0003625   1.7782 358.3250 15.73260011 14016,6727.724,91.53,352.028,347.15,0.0
53932.0,STARLINK-4772,PAYLOAD,2022-12-20 12:23:26,15.73258292,0.000435,53.2124,184.6458,14.8621,345.2527,7.5438e-05,0.00010006,0.0,0 STARLINK-4772,1 53932U 22119AY  22354.51627885  .00010006  00000-0  75438-4 0  9993,2 53932  53.2124 184.6458 0004350  14.8621 345.2527 15.73258292 14480,6727.729,91.53,352.521,346.667,0.0
53932.0,STARLINK-4772,PAYLOAD,2022-12-21 00:35:17,15.73203544,0.0004641,53.2133,182.1293,9.7951,350.3159,-8.680200000000001e-05,-0.00012799,0.0,0 STARLINK-4772,1 53932U 22119AY  22355.02450888 -.00012799  00000-0 -86802-4 0  9997,2 53932  53.2133 182.1293 0004641   9.7951 350.3159 15.73203544 14132,6727.885,91.533,352.872,346.62800000000016,0.0
53932.0,STARLINK-4772,PAYLOAD,2022-12-21 12:47:09,15.73157954,0.0004034,53.212,179.6141,3.8489,356.2561,-0.00013498,-0.00019499,0.0,0 STARLINK-4772,1 53932U 22119AY  22355.53275244 -.00019499  00000-0 -13498-3 0  9998,2 53932  53.2120 179.6141 0004034   3.8489 356.2561 15.73157954 14649,6728.015,91.536,352.594,347.166,0.0
53932.0,STARLINK-4772,PAYLOAD,2022-12-21 18:53:05,15.73177252,0.0004223,53.2117,178.3566,4.0354,356.0699,-1.849e-05,-3.218e-05,0.0,0 STARLINK-4772,1 53932U 22119AY  22355.78686664 -.00003218  00000-0 -18490-4 0  9997,2 53932  53.2117 178.3566 0004223   4.0354 356.0699 15.73177252 14256,6727.96,91.535,352.666,346.9840000000001,0.0
53932.0,STARLINK-4772,PAYLOAD,2022-12-22 16:13:48,15.73218607,0.0003899,53.212,173.9542,3.7837,356.3212,0.00013759,0.00018751,0.0,0 STARLINK-4772,1 53932U 22119AY  22356.67625417  .00018751  00000-0  13759-3 0  9993,2 53932  53.2120 173.9542 0003899   3.7837 356.3212 15.73218607 14822,6727.842,91.532,352.33,347.084,0.0
53932.0,STARLINK-4772,PAYLOAD,2022-12-23 15:06:01,15.73194122,0.0004885,53.2125,169.2395,0.1718,359.9303,2.0601e-05,2.267e-05,0.0,0 STARLINK-4772,1 53932U 22119AY  22357.62918172  .00002267  00000-0  20601-4 0  9992,2 53932  53.2125 169.2395 0004885   0.1718 359.9303 15.73194122 14977,6727.9119999999975,91.534,353.064,346.49,0.0
53932.0,STARLINK-4772,PAYLOAD,2022-12-23 18:08:59,15.73189649,0.0004765,53.2119,168.6103,2.5396,357.5647,-8.4504e-06,-1.812e-05,0.0,0 STARLINK-4772,1 53932U 22119AY  22357.75624025 -.00001812  00000-0 -84504-5 0  9997,2 53932  53.2119 168.6103 0004765   2.5396 357.5647 15.73189649 14563,6727.925,91.534,352.996,346.584,0.0
53932.0,STARLINK-4772,PAYLOAD,2022-12-24 10:55:15,15.73215494,0.0004561,53.2121,165.1491,359.9764,0.1255,5.8597e-05,7.615e-05,0.0,0 STARLINK-4772,1 53932U 22119AY  22358.45503875  .00007615  00000-0  58597-4 0  9991,2 53932  53.2121 165.1491 0004561 359.9764   0.1255 15.73215494 14676,6727.851,91.532,352.785,346.647,0.0
53932.0,STARLINK-4772,PAYLOAD,2022-12-24 18:32:38,15.73230166,0.0004653,53.2122,163.5809,3.5446,356.5606,7.755e-05,0.00010291,0.0,0 STARLINK-4772,1 53932U 22119AY  22358.77267087  .00010291  00000-0  77550-4 0  9992,2 53932  53.2122 163.5809 0004653   3.5446 356.5606 15.73230166 14720,6727.809,91.531,352.805,346.5440000000001,0.0
53932.0,STARLINK-4772,PAYLOAD,2022-12-24 23:07:05,15.73219484,0.0005241,53.2114,162.6378,9.5283,350.5835,4.6917e-05,5.973e-05,0.0,0 STARLINK-4772,1 53932U 22119AY  22358.96325877  .00005973  00000-0  46917-4 0  9999,2 53932  53.2114 162.6378 0005241   9.5283 350.5835 15.73219484 14752,6727.84,91.532,353.231,346.17900000000014,0.0
53932.0,STARLINK-4772,PAYLOAD,2022-12-25 17:24:51,15.73197743,0.0004272,53.2125,158.8647,359.8474,0.2544,-1.1043e-05,-2.175e-05,0.0,0 STARLINK-4772,1 53932U 22119AY  22359.72559659 -.00002175  00000-0 -11043-4 0  9996,2 53932  53.2125 158.8647 0004272 359.8474   0.2544 15.73197743 14878,6727.901999999999,91.533,352.641,346.892,0.0
53932.0,STARLINK-4772,PAYLOAD,2022-12-25 20:27:49,15.73201688,0.0004093999999999,53.2123,158.2344,2.0479,358.0557,-5.0027e-06,-1.327e-05,0.0,0 STARLINK-4772,1 53932U 22119AY  22359.85265133 -.00001327  00000-0 -50027-5 0  9995,2 53932  53.2123 158.2344 0004094   2.0479 358.0557 15.73201688 15321,6727.89,91.533,352.51,347.001,0.0
